start=new Date('2023-02-02T00:00:00.000Z').valueOf();
sats=[{"EPHEMERIS_TYPE":"0","SITE":"AFETR","MEAN_MOTION_DDOT":"0.0000000000000","BSTAR":"0.00012797000000","REF_FRAME":"TEME","SEMIMAJOR_AXIS":"6917.851","GP_ID":"224200224","TLE_LINE2":"2 53900  53.2186   7.0609 0001342  93.9771 266.1375 15.08849453 20742","OBJECT_ID":"2022-119Q","RA_OF_ASC_NODE":"7.0609","ARG_OF_PERICENTER":"93.9771","DECAY_DATE":null,"PERIAPSIS":"538.788","FILE":"3767525","LAUNCH_DATE":"2022-09-24","CENTER_NAME":"EARTH","MEAN_MOTION_DOT":"0.00001750","REV_AT_EPOCH":"2074","MEAN_ELEMENT_THEORY":"SGP4","INCLINATION":"53.2186","ELEMENT_SET_NO":"999","CLASSIFICATION_TYPE":"U","OBJECT_NAME":"STARLINK-5045","PERIOD":"95.437","MEAN_MOTION":"15.08849453","MEAN_ANOMALY":"266.1375","NORAD_CAT_ID":"53900","TIME_SYSTEM":"UTC","ECCENTRICITY":"0.00013420","TLE_LINE1":"1 53900U 22119Q   23032.34199212  .00001750  00000-0  12797-3 0  9995","EPOCH":"2023-02-01T08:12:28.119168","COUNTRY_CODE":"US","OBJECT_TYPE":"PAYLOAD","APOAPSIS":"540.645","RCS_SIZE":"LARGE"},{"TLE_LINE1":"1 53901U 22119R   23032.22425327  .00000117  00000-0  25410-4 0  9995","COUNTRY_CODE":"US","EPOCH":"2023-02-01T05:22:55.482528","RCS_SIZE":"LARGE","APOAPSIS":"540.545","OBJECT_TYPE":"PAYLOAD","OBJECT_NAME":"STARLINK-5024","PERIOD":"95.437","MEAN_MOTION":"15.08845108","NORAD_CAT_ID":"53901","MEAN_ANOMALY":"269.1015","ECCENTRICITY":"0.00011790","TIME_SYSTEM":"UTC","DECAY_DATE":null,"PERIAPSIS":"538.914","ARG_OF_PERICENTER":"91.0112","MEAN_MOTION_DOT":"0.00000117","FILE":"3767525","CENTER_NAME":"EARTH","LAUNCH_DATE":"2022-09-24","REV_AT_EPOCH":"2072","INCLINATION":"53.2180","MEAN_ELEMENT_THEORY":"SGP4","ELEMENT_SET_NO":"999","CLASSIFICATION_TYPE":"U","EPHEMERIS_TYPE":"0","SITE":"AFETR","SEMIMAJOR_AXIS":"6917.865","REF_FRAME":"TEME","BSTAR":"0.00002541000000","MEAN_MOTION_DDOT":"0.0000000000000","GP_ID":"224200974","RA_OF_ASC_NODE":"7.7559","OBJECT_ID":"2022-119R","TLE_LINE2":"2 53901  53.2180   7.7559 0001179  91.0112 269.1015 15.08845108 20729"},{"EPHEMERIS_TYPE":"0","SITE":"AFETR","SEMIMAJOR_AXIS":"6727.857","BSTAR":"-0.00002079800000","REF_FRAME":"TEME","MEAN_MOTION_DDOT":"0.0000000000000","GP_ID":"224199722","OBJECT_ID":"2022-119S","RA_OF_ASC_NODE":"332.8825","TLE_LINE2":"2 53902  53.2138 332.8825 0000530 102.3544 257.7535 15.73213560 21214","PERIAPSIS":"349.365","DECAY_DATE":null,"ARG_OF_PERICENTER":"102.3544","MEAN_MOTION_DOT":"-0.00003538","FILE":"3767525","LAUNCH_DATE":"2022-09-24","CENTER_NAME":"EARTH","REV_AT_EPOCH":"2121","MEAN_ELEMENT_THEORY":"SGP4","INCLINATION":"53.2138","ELEMENT_SET_NO":"999","CLASSIFICATION_TYPE":"U","OBJECT_NAME":"STARLINK-5021","PERIOD":"91.532","MEAN_MOTION":"15.73213560","NORAD_CAT_ID":"53902","MEAN_ANOMALY":"257.7535","ECCENTRICITY":"0.00005300","TIME_SYSTEM":"UTC","TLE_LINE1":"1 53902U 22119S   23032.24328699 -.00003538  00000-0 -20798-4 0  9998","COUNTRY_CODE":"US","EPOCH":"2023-02-01T05:50:19.995936","RCS_SIZE":"LARGE","APOAPSIS":"350.078","OBJECT_TYPE":"PAYLOAD"},{"COUNTRY_CODE":"US","EPOCH":"2023-02-01T08:17:46.470336","TLE_LINE1":"1 53903U 22119T   23032.34567674  .00000042  00000-0  20752-4 0  9993","RCS_SIZE":"LARGE","APOAPSIS":"540.586","OBJECT_TYPE":"PAYLOAD","PERIOD":"95.437","MEAN_MOTION":"15.08848355","OBJECT_NAME":"STARLINK-5022","ECCENTRICITY":"0.00012520","TIME_SYSTEM":"UTC","NORAD_CAT_ID":"53903","MEAN_ANOMALY":"274.2041","MEAN_MOTION_DOT":"0.00000042","FILE":"3767570","CENTER_NAME":"EARTH","LAUNCH_DATE":"2022-09-24","PERIAPSIS":"538.854","DECAY_DATE":null,"ARG_OF_PERICENTER":"85.9094","ELEMENT_SET_NO":"999","CLASSIFICATION_TYPE":"U","REV_AT_EPOCH":"2032","MEAN_ELEMENT_THEORY":"SGP4","INCLINATION":"53.2183","SEMIMAJOR_AXIS":"6917.855","REF_FRAME":"TEME","BSTAR":"0.00002075200000","MEAN_MOTION_DDOT":"0.0000000000000","SITE":"AFETR","EPHEMERIS_TYPE":"0","OBJECT_ID":"2022-119T","RA_OF_ASC_NODE":"7.0923","TLE_LINE2":"2 53903  53.2183   7.0923 0001252  85.9094 274.2041 15.08848355 20324","GP_ID":"224201430"},{"RA_OF_ASC_NODE":"7.0430","OBJECT_ID":"2022-119U","TLE_LINE2":"2 53904  53.2190   7.0430 0001167  99.7908 260.3216 15.08851322 20742","GP_ID":"224200724","REF_FRAME":"TEME","BSTAR":"0.00013913000000","SEMIMAJOR_AXIS":"6917.846","MEAN_MOTION_DDOT":"0.0000000000000","SITE":"AFETR","EPHEMERIS_TYPE":"0","CLASSIFICATION_TYPE":"U","ELEMENT_SET_NO":"999","INCLINATION":"53.2190","REV_AT_EPOCH":"2074","MEAN_ELEMENT_THEORY":"SGP4","MEAN_MOTION_DOT":"0.00001928","LAUNCH_DATE":"2022-09-24","FILE":"3767525","CENTER_NAME":"EARTH","DECAY_DATE":null,"PERIAPSIS":"538.903","ARG_OF_PERICENTER":"99.7908","ECCENTRICITY":"0.00011670","TIME_SYSTEM":"UTC","NORAD_CAT_ID":"53904","MEAN_ANOMALY":"260.3216","PERIOD":"95.437","MEAN_MOTION":"15.08851322","OBJECT_NAME":"STARLINK-4787","RCS_SIZE":"LARGE","APOAPSIS":"540.518","OBJECT_TYPE":"PAYLOAD","EPOCH":"2023-02-01T08:07:09.391296","COUNTRY_CODE":"US","TLE_LINE1":"1 53904U 22119U   23032.33830314  .00001928  00000-0  13913-3 0  9991"},{"MEAN_ANOMALY":"270.9149","NORAD_CAT_ID":"53905","TIME_SYSTEM":"UTC","ECCENTRICITY":"0.00012900","OBJECT_NAME":"STARLINK-5003","PERIOD":"95.437","MEAN_MOTION":"15.08853826","OBJECT_TYPE":"PAYLOAD","APOAPSIS":"540.596","RCS_SIZE":"LARGE","TLE_LINE1":"1 53905U 22119V   23032.32826047  .00003040  00000-0  20894-3 0  9992","EPOCH":"2023-02-01T07:52:41.704608","COUNTRY_CODE":"US","GP_ID":"224200475","TLE_LINE2":"2 53905  53.2182 357.7021 0001290  89.1991 270.9149 15.08853826 20874","RA_OF_ASC_NODE":"357.7021","OBJECT_ID":"2022-119V","SITE":"AFETR","EPHEMERIS_TYPE":"0","MEAN_MOTION_DDOT":"0.0000000000000","REF_FRAME":"TEME","BSTAR":"0.00020894000000","SEMIMAJOR_AXIS":"6917.838","MEAN_ELEMENT_THEORY":"SGP4","REV_AT_EPOCH":"2087","INCLINATION":"53.2182","CLASSIFICATION_TYPE":"U","ELEMENT_SET_NO":"999","ARG_OF_PERICENTER":"89.1991","PERIAPSIS":"538.811","DECAY_DATE":null,"CENTER_NAME":"EARTH","FILE":"3767525","LAUNCH_DATE":"2022-09-24","MEAN_MOTION_DOT":"0.00003040"},{"RA_OF_ASC_NODE":"357.3895","OBJECT_ID":"2022-119W","TLE_LINE2":"2 53906  53.2195 357.3895 0001076  97.1417 262.9698 15.08858962 20874","GP_ID":"224199223","BSTAR":"0.00018118000000","REF_FRAME":"TEME","SEMIMAJOR_AXIS":"6917.822","MEAN_MOTION_DDOT":"0.0000000000000","EPHEMERIS_TYPE":"0","SITE":"AFETR","ELEMENT_SET_NO":"999","CLASSIFICATION_TYPE":"U","REV_AT_EPOCH":"2087","MEAN_ELEMENT_THEORY":"SGP4","INCLINATION":"53.2195","MEAN_MOTION_DOT":"0.00002598","FILE":"3767525","CENTER_NAME":"EARTH","LAUNCH_DATE":"2022-09-24","DECAY_DATE":null,"PERIAPSIS":"538.943","ARG_OF_PERICENTER":"97.1417","ECCENTRICITY":"0.00010760","TIME_SYSTEM":"UTC","NORAD_CAT_ID":"53906","MEAN_ANOMALY":"262.9698","PERIOD":"95.436","MEAN_MOTION":"15.08858962","OBJECT_NAME":"STARLINK-5054","RCS_SIZE":"LARGE","APOAPSIS":"540.432","OBJECT_TYPE":"PAYLOAD","EPOCH":"2023-02-01T06:38:24.995616","COUNTRY_CODE":"US","TLE_LINE1":"1 53906U 22119W   23032.27667819  .00002598  00000-0  18118-3 0  9990"},{"MEAN_ANOMALY":"263.9817","NORAD_CAT_ID":"53907","ECCENTRICITY":"0.00012910","TIME_SYSTEM":"UTC","OBJECT_NAME":"STARLINK-5063","PERIOD":"95.438","MEAN_MOTION":"15.08828880","OBJECT_TYPE":"PAYLOAD","APOAPSIS":"540.672","RCS_SIZE":"LARGE","TLE_LINE1":"1 53907U 22119X   23032.33463202 -.00002120  00000-0 -11517-3 0  9997","EPOCH":"2023-02-01T08:01:52.206528","COUNTRY_CODE":"US","GP_ID":"224199473","TLE_LINE2":"2 53907  53.2196   7.0181 0001291  96.1322 263.9817 15.08828880 20742","RA_OF_ASC_NODE":"7.0181","OBJECT_ID":"2022-119X","EPHEMERIS_TYPE":"0","SITE":"AFETR","MEAN_MOTION_DDOT":"0.0000000000000","REF_FRAME":"TEME","BSTAR":"-0.00011517000000","SEMIMAJOR_AXIS":"6917.914","MEAN_ELEMENT_THEORY":"SGP4","REV_AT_EPOCH":"2074","INCLINATION":"53.2196","CLASSIFICATION_TYPE":"U","ELEMENT_SET_NO":"999","ARG_OF_PERICENTER":"96.1322","DECAY_DATE":null,"PERIAPSIS":"538.886","FILE":"3767525","LAUNCH_DATE":"2022-09-24","CENTER_NAME":"EARTH","MEAN_MOTION_DOT":"-0.00002120"},{"FILE":"3767525","CENTER_NAME":"EARTH","LAUNCH_DATE":"2022-09-24","MEAN_MOTION_DOT":"0.00000256","ARG_OF_PERICENTER":"91.0882","DECAY_DATE":null,"PERIAPSIS":"538.772","ELEMENT_SET_NO":"999","CLASSIFICATION_TYPE":"U","REV_AT_EPOCH":"2087","INCLINATION":"53.2189","MEAN_ELEMENT_THEORY":"SGP4","MEAN_MOTION_DDOT":"0.0000000000000","SEMIMAJOR_AXIS":"6917.843","BSTAR":"0.00003417800000","REF_FRAME":"TEME","EPHEMERIS_TYPE":"0","SITE":"AFETR","TLE_LINE2":"2 53908  53.2189 357.6573 0001354  91.0882 269.0265 15.08852103 20872","OBJECT_ID":"2022-119Y","RA_OF_ASC_NODE":"357.6573","GP_ID":"224200225","COUNTRY_CODE":"US","EPOCH":"2023-02-01T07:42:04.803552","TLE_LINE1":"1 53908U 22119Y   23032.32088893  .00000256  00000-0  34178-4 0  9991","OBJECT_TYPE":"PAYLOAD","APOAPSIS":"540.645","RCS_SIZE":"LARGE","MEAN_MOTION":"15.08852103","PERIOD":"95.437","OBJECT_NAME":"STARLINK-5057","ECCENTRICITY":"0.00013540","TIME_SYSTEM":"UTC","MEAN_ANOMALY":"269.0265","NORAD_CAT_ID":"53908"},{"GP_ID":"224200975","RA_OF_ASC_NODE":"357.7242","OBJECT_ID":"2022-119Z","TLE_LINE2":"2 53909  53.2168 357.7242 0001199  97.6568 262.4561 15.08858372 20874","SITE":"AFETR","EPHEMERIS_TYPE":"0","REF_FRAME":"TEME","BSTAR":"0.00031701000000","SEMIMAJOR_AXIS":"6917.824","MEAN_MOTION_DDOT":"0.0000000000000","MEAN_ELEMENT_THEORY":"SGP4","REV_AT_EPOCH":"2087","INCLINATION":"53.2168","CLASSIFICATION_TYPE":"U","ELEMENT_SET_NO":"999","PERIAPSIS":"538.860","DECAY_DATE":null,"ARG_OF_PERICENTER":"97.6568","MEAN_MOTION_DOT":"0.00004763","LAUNCH_DATE":"2022-09-24","FILE":"3767525","CENTER_NAME":"EARTH","NORAD_CAT_ID":"53909","MEAN_ANOMALY":"262.4561","TIME_SYSTEM":"UTC","ECCENTRICITY":"0.00011990","OBJECT_NAME":"STARLINK-4796","PERIOD":"95.436","MEAN_MOTION":"15.08858372","RCS_SIZE":"LARGE","APOAPSIS":"540.519","OBJECT_TYPE":"PAYLOAD","TLE_LINE1":"1 53909U 22119Z   23032.33194586  .00004763  00000-0  31701-3 0  9995","EPOCH":"2023-02-01T07:58:00.122304","COUNTRY_CODE":"US"}];
